HORUS 1                 
1 55690U 23025A   26157.84105237  .00006837  00000+0  28942-3 0  9999
2 55690  97.3459 232.6527 0002047 129.5649 230.5769 15.23493396182479
HORUS 2                 
1 55844U 23032A   26157.81013748  .00007222  00000+0  30713-3 0  9998
2 55844  97.3531 233.4196 0002097 114.2984 245.8472 15.23317065179902
GLOBAL-19               
1 55982U 23041B   26157.77287841  .00016213  00000+0  42790-3 0  9991
2 55982  42.0027 262.6048 0009019 291.1396  68.8479 15.38119609180323
BRO-9                   
1 56185U 23054H   26157.81696126  .00486014  96877-4  12928-2 0  9997
2 56185  97.2932  75.4493 0006615 132.8647 227.3185 15.94551736177436
ION SCV-010             
1 56192U 23054Q   26157.40705349  .00005865  00000+0  22984-3 0  9991
2 56192  97.3791  47.0457 0011341 238.4142 121.5990 15.26104570174552
TELEOS-2                
1 56310U 23057C   26156.89202269 -.00001719  00000+0 -20690-3 0  9999
2 56310   9.9854 286.4560 0001117  55.0249 305.0069 14.96374255171107
SNIPE 4                 
1 56744U 23072B   26157.83210064  .00024611  00000+0  57918-3 0  9991
2 56744  97.5263   3.5115 0005383  18.9451 341.1995 15.41944466168519
SNIPE 2                 
1 56745U 23072C   26157.84001170  .00031763  00000+0  64346-3 0  9998
2 56745  97.5257   6.4928 0005277  48.8877 311.2827 15.46340502168645
2023-072G               
1 56749U 23072G   26157.86504292  .00037046  00000+0  66071-3 0  9994
2 56749  97.4920   5.3103 0004007  41.1727 318.9826 15.49988456168864
GEISAT PRECURSOR        
1 56934U 23084C   26157.85109111  .00008678  00000+0  26195-3 0  9995
2 56934  97.6214 298.4662 0005934  35.1083 325.0549 15.34511231165945
BLACKJACK ACES-3        
1 56950U 23084U   26157.62624292  .00006484  00000+0  31844-3 0  9990
2 56950  97.6202 292.7388 0003475  62.2319 297.9267 15.18412744165566
BLACKJACK ACES-2        
1 56955U 23084Z   26157.69880078  .00008456  00000+0  41336-3 0  9996
2 56955  97.6200 292.8959 0001708  72.8168 287.3252 15.18482005165586
BLACKJACK ACES-1        
1 56956U 23084AA  26156.89613755  .00008969  00000+0  43851-3 0  9997
2 56956  97.6191 291.8617 0001335  96.4000 263.7386 15.18458699115188
ION SCV-011             
1 56957U 23084AB  26157.46301667  .00006679  00000+0  24194-3 0  9993
2 56957  98.1385 343.7497 0008477  78.1671 282.0517 15.28741173164174
GHOST-3                 
1 56958U 23084AC  26157.68962747  .00022230  00000+0  43322-3 0  9995
2 56958  97.6206 305.7026 0005749 338.5654  21.5354 15.47539229166399
TOMORROW-R2             
1 56962U 23084AG  26157.18601151  .00433704  81954-4  89381-3 0  9993
2 56962  97.5980 319.8732 0006228 249.2732 110.7878 15.99232517167299
AFR-1                   
1 56964U 23084AJ  26157.82341019  .00005450  00000+0  19923-3 0  9996
2 56964  97.6263 294.2667 0010904  23.3792 336.7940 15.28468100165640
METEOR-M2 3             
1 57166U 23091A   26157.84017260  .00000006  00000+0  21543-4 0  9993
2 57166  98.6086 213.0298 0003753 183.3761 176.7394 14.24045981153044
UMKA 1 (RS40S)          
1 57172U 23091G   26157.82932346  .00007341  00000+0  33627-3 0  9993
2 57172  97.5051 216.5671 0013718 150.2225 209.9794 15.20698386162430
2023-091H               
1 57173U 23091H   26157.83956093  .00013297  00000+0  48231-3 0  9994
2 57173  97.5049 220.9494 0010946 144.6057 215.5911 15.28410347162723
2023-091J               
1 57174U 23091J   26157.81117378  .00004166  00000+0  23360-3 0  9999
2 57174  97.5057 211.0558 0013433 176.7716 183.3605 15.13856295162066
CUBEBEL 2 (EU11S)       
1 57175U 23091K   26157.84383168  .00014583  00000+0  52072-3 0  9991
2 57175  97.5052 220.9703 0010974 146.2864 213.9076 15.28902621162722
SITRO-AIS 5 (KATYS)     
1 57176U 23091L   26157.86293300  .00014744  00000+0  52112-3 0  9996
2 57176  97.5060 221.6659 0012610 135.4950 224.7305 15.29216361162764
ZORKIY-2M 1             
1 57177U 23091M   26157.81624102  .00007838  00000+0  35801-3 0  9992
2 57177  97.5092 216.8153 0014326 147.7244 212.4870 15.20766279162426
CUBESX-HSE 3 (RS42S)    
1 57178U 23091N   26157.84772478  .00016038  00000+0  53719-3 0  9996
2 57178  97.5091 223.3063 0012082 126.5260 233.7095 15.30952262162840
MONITOR-3 (RS58S)       
1 57180U 23091Q   26157.84957963  .00012806  00000+0  47542-3 0  9999
2 57180  97.5084 221.2214 0012974 132.8033 227.4299 15.27631665162717
MONITOR-4 (RS57S)       
1 57182U 23091S   26157.82923943  .00011468  00000+0  42489-3 0  9998
2 57182  97.5077 221.1714 0012950 133.1357 227.0967 15.27727015162715
MONITOR-2 (RS39S)       
1 57184U 23091U   26157.83766094  .00006102  00000+0  29592-3 0  9992
2 57184  97.5074 216.1880 0012265 142.9965 217.2118 15.18813242162384
SVYATOBOR 1 (RS60S)     
1 57187U 23091X   26157.83351933  .00010110  00000+0  39012-3 0  9999
2 57187  97.5089 221.5945 0010837 125.4585 234.7666 15.26438179162734
HORS 1                  
1 57188U 23091Y   26157.81976419  .00010506  00000+0  40410-3 0  9993
2 57188  97.5066 221.3445 0010298 125.0133 235.2073 15.26539116162730
